{
    "links": {
        "self": "http://www.neowsapp.com/rest/v1/neo/3838850?api_key=iIulBulltgU6a56xZRHN4H3l9WmuAYTsLGpBGhQ2"
    },
    "id": "3838850",
    "neo_reference_id": "3838850",
    "name": "(2019 DX)",
    "designation": "2019 DX",
    "nasa_jpl_url": "http://ssd.jpl.nasa.gov/sbdb.cgi?sstr=3838850",
    "absolute_magnitude_h": 27.0,
    "estimated_diameter": {
        "kilometers": {
            "estimated_diameter_min": 0.0105816886,
            "estimated_diameter_max": 0.023661375
        },
        "meters": {
            "estimated_diameter_min": 10.5816885933,
            "estimated_diameter_max": 23.6613750114
        },
        "miles": {
            "estimated_diameter_min": 0.0065751544,
            "estimated_diameter_max": 0.0147024923
        },
        "feet": {
            "estimated_diameter_min": 34.7168272045,
            "estimated_diameter_max": 77.6291855923
        }
    },
    "is_potentially_hazardous_asteroid": false,
    "close_approach_data": [
        {
            "close_approach_date": "1981-09-26",
            "close_approach_date_full": "1981-Sep-26 18:55",
            "epoch_date_close_approach": 370378500000,
            "relative_velocity": {
                "kilometers_per_second": "13.5038911873",
                "kilometers_per_hour": "48614.0082741461",
                "miles_per_hour": "30206.8541967882"
            },
            "miss_distance": {
                "astronomical": "0.0928142795",
                "lunar": "36.1047547255",
                "kilometers": "13884818.518784665",
                "miles": "8627626.159231777"
            },
            "orbiting_body": "Mars"
        },
        {
            "close_approach_date": "2019-03-03",
            "close_approach_date_full": "2019-Mar-03 14:46",
            "epoch_date_close_approach": 1551624360000,
            "relative_velocity": {
                "kilometers_per_second": "12.6126558689",
                "kilometers_per_hour": "45405.5611278708",
                "miles_per_hour": "28213.2499130373"
            },
            "miss_distance": {
                "astronomical": "0.0096667898",
                "lunar": "3.7603812322",
                "kilometers": "1446131.163817726",
                "miles": "898584.2372915788"
            },
            "orbiting_body": "Earth"
        },
        {
            "close_approach_date": "2019-03-03",
            "close_approach_date_full": "2019-Mar-03 21:16",
            "epoch_date_close_approach": 1551647760000,
            "relative_velocity": {
                "kilometers_per_second": "12.4580956218",
                "kilometers_per_hour": "44849.1442383256",
                "miles_per_hour": "27867.5140963085"
            },
            "miss_distance": {
                "astronomical": "0.0091789843",
                "lunar": "3.5706248927",
                "kilometers": "1373156.500043441",
                "miles": "853239.8838678458"
            },
            "orbiting_body": "Moon"
        }
    ],
    "orbital_data": {
        "orbit_id": "1",
        "orbit_determination_date": "2019-02-28 12:42:09",
        "first_observation_date": "2019-02-26",
        "last_observation_date": "2019-02-28",
        "data_arc_in_days": 2,
        "observations_used": 37,
        "orbit_uncertainty": "8",
        "minimum_orbit_intersection": ".000935099",
        "jupiter_tisserand_invariant": "3.841",
        "epoch_osculation": "2458541.5",
        "eccentricity": ".5336969976587294",
        "semi_major_axis": "1.834091433936761",
        "inclination": "1.171753952258606",
        "ascending_node_longitude": "346.1278356943329",
        "orbital_period": "907.2561078324248",
        "perihelion_distance": ".8552423422131178",
        "perihelion_argument": "230.1620070603353",
        "aphelion_distance": "2.812940525660403",
        "perihelion_time": "2458584.459818967142",
        "mean_anomaly": "342.9535070696623",
        "mean_motion": ".3968008557805091",
        "equinox": "J2000",
        "orbit_class": {
            "orbit_class_type": "APO",
            "orbit_class_description": "Near-Earth asteroid orbits which cross the Earth’s orbit similar to that of 1862 Apollo",
            "orbit_class_range": "a (semi-major axis) > 1.0 AU; q (perihelion) < 1.017 AU"
        }
    },
    "is_sentry_object": false
}